start=new Date('2022-05-20T00:00:00.000Z').valueOf();
sats=[{"CENTER_NAME":"EARTH","OBJECT_TYPE":"PAYLOAD","COUNTRY_CODE":"US","TIME_SYSTEM":"UTC","ARG_OF_PERICENTER":"60.3013","OBJECT_NAME":"STARLINK-1620","BSTAR":"0.00008077400000","EPOCH":"2022-05-19T11:47:19.918464","REF_FRAME":"TEME","RA_OF_ASC_NODE":"57.4689","MEAN_ANOMALY":"299.8124","MEAN_MOTION_DOT":"0.00000922","APOAPSIS":"548.274","PERIAPSIS":"546.211","LAUNCH_DATE":"2020-08-18","MEAN_MOTION_DDOT":"0.0000000000000","NORAD_CAT_ID":"46149","REV_AT_EPOCH":"9747","SITE":"AFETR","ELEMENT_SET_NO":"999","MEAN_MOTION":"15.06390588","FILE":"3453116","MEAN_ELEMENT_THEORY":"SGP4","RCS_SIZE":"LARGE","DECAY_DATE":null,"TLE_LINE1":"1 46149U 20057AJ  22139.49120276  .00000922  00000-0  80774-4 0  9999","CLASSIFICATION_TYPE":"U","EPHEMERIS_TYPE":"0","GP_ID":"203948821","PERIOD":"95.593","INCLINATION":"53.0553","TLE_LINE2":"2 46149  53.0553  57.4689 0001489  60.3013 299.8124 15.06390588 97478","SEMIMAJOR_AXIS":"6925.377","OBJECT_ID":"2020-057AJ","ECCENTRICITY":"0.00014890"},{"TLE_LINE1":"1 46150U 20057AK  22139.81740348 -.00000980  00000-0 -46865-4 0  9994","CLASSIFICATION_TYPE":"U","REV_AT_EPOCH":"9658","MEAN_MOTION":"15.06402849","SITE":"AFETR","ELEMENT_SET_NO":"999","FILE":"3453812","RCS_SIZE":"LARGE","MEAN_ELEMENT_THEORY":"SGP4","DECAY_DATE":null,"TLE_LINE2":"2 46150  53.0570  75.9910 0002224  49.9499 310.1685 15.06402849 96584","OBJECT_ID":"2020-057AK","SEMIMAJOR_AXIS":"6925.340","ECCENTRICITY":"0.00022240","EPHEMERIS_TYPE":"0","GP_ID":"203985401","PERIOD":"95.592","INCLINATION":"53.0570","TIME_SYSTEM":"UTC","OBJECT_NAME":"STARLINK-1629","ARG_OF_PERICENTER":"49.9499","BSTAR":"-0.00004686500000","EPOCH":"2022-05-19T19:37:03.660672","OBJECT_TYPE":"PAYLOAD","CENTER_NAME":"EARTH","COUNTRY_CODE":"US","MEAN_MOTION_DOT":"-0.00000980","APOAPSIS":"548.745","PERIAPSIS":"545.665","LAUNCH_DATE":"2020-08-18","MEAN_MOTION_DDOT":"0.0000000000000","NORAD_CAT_ID":"46150","REF_FRAME":"TEME","MEAN_ANOMALY":"310.1685","RA_OF_ASC_NODE":"75.9910"},{"COUNTRY_CODE":"US","CENTER_NAME":"EARTH","OBJECT_TYPE":"PAYLOAD","BSTAR":"-0.00055353000000","ARG_OF_PERICENTER":"54.1141","OBJECT_NAME":"STARLINK-1631","EPOCH":"2022-05-19T19:02:33.438048","TIME_SYSTEM":"UTC","MEAN_ANOMALY":"305.9982","RA_OF_ASC_NODE":"56.0963","REF_FRAME":"TEME","PERIAPSIS":"546.195","LAUNCH_DATE":"2020-08-18","MEAN_MOTION_DDOT":"0.0000000000000","NORAD_CAT_ID":"46151","APOAPSIS":"548.200","MEAN_MOTION_DOT":"-0.00008518","FILE":"3453812","RCS_SIZE":"LARGE","MEAN_ELEMENT_THEORY":"SGP4","DECAY_DATE":null,"REV_AT_EPOCH":"9685","MEAN_MOTION":"15.06405259","SITE":"AFETR","ELEMENT_SET_NO":"999","TLE_LINE1":"1 46151U 20057AL  22139.79344257 -.00008518  00000-0 -55353-3 0  9997","CLASSIFICATION_TYPE":"U","INCLINATION":"53.0550","PERIOD":"95.592","GP_ID":"203985653","EPHEMERIS_TYPE":"0","OBJECT_ID":"2020-057AL","SEMIMAJOR_AXIS":"6925.332","ECCENTRICITY":"0.00014480","TLE_LINE2":"2 46151  53.0550  56.0963 0001448  54.1141 305.9982 15.06405259 96850"},{"DECAY_DATE":null,"FILE":"3453812","RCS_SIZE":"LARGE","MEAN_ELEMENT_THEORY":"SGP4","ELEMENT_SET_NO":"999","SITE":"AFETR","MEAN_MOTION":"15.06393686","REV_AT_EPOCH":"9657","CLASSIFICATION_TYPE":"U","TLE_LINE1":"1 46152U 20057AM  22139.77686203 -.00001036  00000-0 -50665-4 0  9996","PERIOD":"95.593","INCLINATION":"53.0559","GP_ID":"203986403","EPHEMERIS_TYPE":"0","ECCENTRICITY":"0.00017630","SEMIMAJOR_AXIS":"6925.368","OBJECT_ID":"2020-057AM","TLE_LINE2":"2 46152  53.0559  76.1848 0001763  63.0501 297.0668 15.06393686 96575","COUNTRY_CODE":"US","CENTER_NAME":"EARTH","OBJECT_TYPE":"PAYLOAD","EPOCH":"2022-05-19T18:38:40.879392","BSTAR":"-0.00005066500000","OBJECT_NAME":"STARLINK-1634","ARG_OF_PERICENTER":"63.0501","TIME_SYSTEM":"UTC","MEAN_ANOMALY":"297.0668","RA_OF_ASC_NODE":"76.1848","REF_FRAME":"TEME","NORAD_CAT_ID":"46152","MEAN_MOTION_DDOT":"0.0000000000000","PERIAPSIS":"546.012","LAUNCH_DATE":"2020-08-18","APOAPSIS":"548.454","MEAN_MOTION_DOT":"-0.00001036"},{"OBJECT_TYPE":"PAYLOAD","CENTER_NAME":"EARTH","COUNTRY_CODE":"US","TIME_SYSTEM":"UTC","EPOCH":"2022-05-19T11:31:24.670560","ARG_OF_PERICENTER":"49.5202","OBJECT_NAME":"STARLINK-1636","BSTAR":"0.00002293900000","REF_FRAME":"TEME","MEAN_ANOMALY":"310.5930","RA_OF_ASC_NODE":"57.5228","MEAN_MOTION_DOT":"0.00000060","APOAPSIS":"548.401","MEAN_MOTION_DDOT":"0.0000000000000","NORAD_CAT_ID":"46153","PERIAPSIS":"546.119","LAUNCH_DATE":"2020-08-18","ELEMENT_SET_NO":"999","SITE":"AFETR","MEAN_MOTION":"15.06384841","REV_AT_EPOCH":"9746","DECAY_DATE":null,"MEAN_ELEMENT_THEORY":"SGP4","FILE":"3453613","RCS_SIZE":"LARGE","CLASSIFICATION_TYPE":"U","TLE_LINE1":"1 46153U 20057AN  22139.48014665  .00000060  00000-0  22939-4 0  9999","EPHEMERIS_TYPE":"0","GP_ID":"203960893","PERIOD":"95.593","INCLINATION":"53.0554","TLE_LINE2":"2 46153  53.0554  57.5228 0001648  49.5202 310.5930 15.06384841 97460","ECCENTRICITY":"0.00016480","SEMIMAJOR_AXIS":"6925.395","OBJECT_ID":"2020-057AN"},{"COUNTRY_CODE":"US","CENTER_NAME":"EARTH","OBJECT_TYPE":"PAYLOAD","BSTAR":"0.00015363000000","ARG_OF_PERICENTER":"62.5626","OBJECT_NAME":"STARLINK-1642","EPOCH":"2022-05-19T11:45:59.761728","TIME_SYSTEM":"UTC","RA_OF_ASC_NODE":"67.4792","MEAN_ANOMALY":"297.5525","REF_FRAME":"TEME","LAUNCH_DATE":"2020-08-18","PERIAPSIS":"546.126","NORAD_CAT_ID":"46154","MEAN_MOTION_DDOT":"0.0000000000000","APOAPSIS":"548.330","MEAN_MOTION_DOT":"0.00002007","MEAN_ELEMENT_THEORY":"SGP4","FILE":"3453038","RCS_SIZE":"LARGE","DECAY_DATE":null,"REV_AT_EPOCH":"9667","MEAN_MOTION":"15.06395278","SITE":"AFETR","ELEMENT_SET_NO":"999","TLE_LINE1":"1 46154U 20057AP  22139.49027502  .00002007  00000-0  15363-3 0  9990","CLASSIFICATION_TYPE":"U","INCLINATION":"53.0561","PERIOD":"95.592","GP_ID":"203943022","EPHEMERIS_TYPE":"0","SEMIMAJOR_AXIS":"6925.363","OBJECT_ID":"2020-057AP","ECCENTRICITY":"0.00015910","TLE_LINE2":"2 46154  53.0561  67.4792 0001591  62.5626 297.5525 15.06395278 96679"},{"RA_OF_ASC_NODE":"35.8586","MEAN_ANOMALY":"311.3570","REF_FRAME":"TEME","PERIAPSIS":"546.084","LAUNCH_DATE":"2020-08-18","NORAD_CAT_ID":"46155","MEAN_MOTION_DDOT":"0.0000000000000","APOAPSIS":"548.424","MEAN_MOTION_DOT":"-0.00001160","COUNTRY_CODE":"US","CENTER_NAME":"EARTH","OBJECT_TYPE":"PAYLOAD","BSTAR":"-0.00005901400000","OBJECT_NAME":"STARLINK-1667","ARG_OF_PERICENTER":"48.7564","EPOCH":"2022-05-19T20:19:32.534976","TIME_SYSTEM":"UTC","PERIOD":"95.593","INCLINATION":"53.0567","GP_ID":"203986153","EPHEMERIS_TYPE":"0","OBJECT_ID":"2020-057AQ","SEMIMAJOR_AXIS":"6925.389","ECCENTRICITY":"0.00016890","TLE_LINE2":"2 46155  53.0567  35.8586 0001689  48.7564 311.3570 15.06386795 98380","MEAN_ELEMENT_THEORY":"SGP4","FILE":"3453812","RCS_SIZE":"LARGE","DECAY_DATE":null,"REV_AT_EPOCH":"9838","ELEMENT_SET_NO":"999","SITE":"AFETR","MEAN_MOTION":"15.06386795","TLE_LINE1":"1 46155U 20057AQ  22139.84690434 -.00001160  00000-0 -59014-4 0  9993","CLASSIFICATION_TYPE":"U"},{"APOAPSIS":"548.537","MEAN_MOTION_DOT":"0.00000429","NORAD_CAT_ID":"46156","MEAN_MOTION_DDOT":"0.0000000000000","LAUNCH_DATE":"2020-08-18","PERIAPSIS":"545.989","MEAN_ANOMALY":"309.5299","RA_OF_ASC_NODE":"57.3831","REF_FRAME":"TEME","TIME_SYSTEM":"UTC","EPOCH":"2022-05-19T12:08:34.120608","BSTAR":"0.00004772400000","OBJECT_NAME":"STARLINK-1545","ARG_OF_PERICENTER":"50.5852","CENTER_NAME":"EARTH","OBJECT_TYPE":"PAYLOAD","COUNTRY_CODE":"US","TLE_LINE2":"2 46156  53.0575  57.3831 0001840  50.5852 309.5299 15.06383851 97489","ECCENTRICITY":"0.00018400","SEMIMAJOR_AXIS":"6925.398","OBJECT_ID":"2020-057AR","GP_ID":"203961402","EPHEMERIS_TYPE":"0","INCLINATION":"53.0575","PERIOD":"95.593","CLASSIFICATION_TYPE":"U","TLE_LINE1":"1 46156U 20057AR  22139.50595047  .00000429  00000-0  47724-4 0  9991","SITE":"AFETR","MEAN_MOTION":"15.06383851","ELEMENT_SET_NO":"999","REV_AT_EPOCH":"9748","DECAY_DATE":null,"FILE":"3453597","RCS_SIZE":"LARGE","MEAN_ELEMENT_THEORY":"SGP4"},{"RA_OF_ASC_NODE":"37.7559","MEAN_ANOMALY":"314.4545","REF_FRAME":"TEME","APOAPSIS":"548.611","MEAN_MOTION_DOT":"-0.00000080","PERIAPSIS":"545.893","LAUNCH_DATE":"2020-08-18","NORAD_CAT_ID":"46157","MEAN_MOTION_DDOT":"0.0000000000000","OBJECT_TYPE":"PAYLOAD","CENTER_NAME":"EARTH","COUNTRY_CODE":"US","TIME_SYSTEM":"UTC","BSTAR":"0.00001352800000","ARG_OF_PERICENTER":"45.6604","OBJECT_NAME":"STARLINK-1587","EPOCH":"2022-05-19T10:14:26.968128","GP_ID":"203942772","EPHEMERIS_TYPE":"0","INCLINATION":"53.0574","PERIOD":"95.593","TLE_LINE2":"2 46157  53.0574  37.7559 0001962  45.6604 314.4545 15.06387528 97083","SEMIMAJOR_AXIS":"6925.387","OBJECT_ID":"2020-057AS","ECCENTRICITY":"0.00019620","REV_AT_EPOCH":"9708","SITE":"AFETR","ELEMENT_SET_NO":"999","MEAN_MOTION":"15.06387528","RCS_SIZE":"LARGE","FILE":"3453038","MEAN_ELEMENT_THEORY":"SGP4","DECAY_DATE":null,"TLE_LINE1":"1 46157U 20057AS  22139.42670102 -.00000080  00000-0  13528-4 0  9998","CLASSIFICATION_TYPE":"U"},{"EPHEMERIS_TYPE":"0","GP_ID":"203942523","PERIOD":"95.593","INCLINATION":"53.0577","TLE_LINE2":"2 46158  53.0577  37.7760 0001581  73.2902 286.8260 15.06384585 98342","ECCENTRICITY":"0.00015810","SEMIMAJOR_AXIS":"6925.396","OBJECT_ID":"2020-057AT","MEAN_MOTION":"15.06384585","SITE":"AFETR","ELEMENT_SET_NO":"999","REV_AT_EPOCH":"9834","DECAY_DATE":null,"MEAN_ELEMENT_THEORY":"SGP4","FILE":"3453038","RCS_SIZE":"LARGE","CLASSIFICATION_TYPE":"U","TLE_LINE1":"1 46158U 20057AT  22139.42301504  .00000611  00000-0  59948-4 0  9991","REF_FRAME":"TEME","RA_OF_ASC_NODE":"37.7760","MEAN_ANOMALY":"286.8260","MEAN_MOTION_DOT":"0.00000611","APOAPSIS":"548.356","NORAD_CAT_ID":"46158","MEAN_MOTION_DDOT":"0.0000000000000","PERIAPSIS":"546.166","LAUNCH_DATE":"2020-08-18","CENTER_NAME":"EARTH","OBJECT_TYPE":"PAYLOAD","COUNTRY_CODE":"US","TIME_SYSTEM":"UTC","EPOCH":"2022-05-19T10:09:08.499456","OBJECT_NAME":"STARLINK-1589","ARG_OF_PERICENTER":"73.2902","BSTAR":"0.00005994800000"}];
